NORAD_CAT_ID,OBJECT_NAME,OBJECT_TYPE,EPOCH,MEAN_MOTION,ECCENTRICITY,INCLINATION,RA_OF_ASC_NODE,ARG_OF_PERICENTER,MEAN_ANOMALY,BSTAR,MEAN_MOTION_DOT,MEAN_MOTION_DDOT,TLE_LINE0,TLE_LINE1,TLE_LINE2,SEMIMAJOR_AXIS,PERIOD,APOGEE,PERIGEE,DECAYED
55667.0,STARLINK-5456,PAYLOAD,2023-11-16 18:16:54,14.9914161,0.0003181,69.9984,132.245,273.8056,86.2739,-2.7132e-06,-1.27e-06,0.0,0 STARLINK-5456,1 55667U 23021AR  23320.76174202 -.00000127  00000-0 -27132-5 0  9998,2 55667  69.9984 132.2450 0003181 273.8056  86.2739 14.99141610 42879,6947.684,96.055,571.759,567.339,0.0
55667.0,STARLINK-5456,PAYLOAD,2023-11-17 11:53:49,14.99137429,0.0003169,69.9991,130.3927,273.3783,86.7013,2.83e-05,2.51e-06,0.0,0 STARLINK-5456,1 55667U 23021AR  23321.49570723  .00000251  00000-0  28300-4 0  9990,2 55667  69.9991 130.3927 0003169 273.3783  86.7013 14.99137429 42685,6947.697,96.055,571.764,567.36,0.0
55667.0,STARLINK-5456,PAYLOAD,2023-11-17 13:29:54,14.99137692,0.0003162,69.9991,130.2242,273.3537,86.7261,3.1027e-05,2.84e-06,0.0,0 STARLINK-5456,1 55667U 23021AR  23321.56243099  .00000284  00000-0  31027-4 0  9997,2 55667  69.9991 130.2242 0003162 273.3537  86.7261 14.99137692 42995,6947.696,96.055,571.758,567.364,0.0
55667.0,STARLINK-5456,PAYLOAD,2023-11-17 18:18:08,14.99137989,0.0003164,69.9991,129.7189,273.296,86.7838,3.2643e-05,3.04e-06,0.0,0 STARLINK-5456,1 55667U 23021AR  23321.76260280  .00000304  00000-0  32643-4 0  9998,2 55667  69.9991 129.7189 0003164 273.2960  86.7838 14.99137989 43023,6947.695,96.055,571.759,567.362,0.0
55667.0,STARLINK-5456,PAYLOAD,2023-11-18 11:55:03,14.99139704,0.0003136,69.999,127.866,273.3183,86.7618,-1.1323e-05,-2.32e-06,0.0,0 STARLINK-5456,1 55667U 23021AR  23322.49656687 -.00000232  00000-0 -11323-4 0  9993,2 55667  69.9990 127.8660 0003136 273.3183  86.7618 14.99139704 42833,6947.69,96.055,571.734,567.376,0.0
55667.0,STARLINK-5456,PAYLOAD,2023-11-19 11:56:26,14.99032231,0.0004068,69.9993,125.3397,281.7317,78.3385,-0.0011353,-0.00013863,0.0,0 STARLINK-5456,1 55667U 23021AR  23323.49752839 -.00013863  00000-0 -11353-2 0  9995,2 55667  69.9993 125.3397 0004068 281.7317  78.3385 14.99032231 42984,6948.022,96.062,572.714,567.061,0.0
55667.0,STARLINK-5456,PAYLOAD,2023-11-19 13:32:35,14.9898329,0.0002957,69.9992,125.1713,263.7014,96.3808,-0.0016658,-0.00020251,0.0,0 STARLINK-5456,1 55667U 23021AR  23323.56429989 -.00020251  00000-0 -16658-2 0  9992,2 55667  69.9992 125.1713 0002957 263.7014  96.3808 14.98983290 43296,6948.173,96.065,572.093,567.984,0.0
55667.0,STARLINK-5456,PAYLOAD,2023-11-19 19:57:10,14.98823844,0.0003374,69.9994,124.4983,252.5221,107.557,-0.0032698,-0.00039391,0.0,0 STARLINK-5456,1 55667U 23021AR  23323.83136584 -.00039391  00000-0 -32698-2 0  9995,2 55667  69.9994 124.4983 0003374 252.5221 107.5570 14.98823844 43030,6948.666,96.075,572.876,568.187,0.0
55667.0,STARLINK-5456,PAYLOAD,2023-11-20 03:57:49,14.98715351,0.0002756,69.9998,123.6567,278.4416,81.643,-0.0041094,-0.00049271,0.0,0 STARLINK-5456,1 55667U 23021AR  23324.16515426 -.00049271  00000-0 -41094-2 0  9996,2 55667  69.9998 123.6567 0002756 278.4416  81.6430 14.98715351 43084,6949.001,96.082,572.782,568.951,0.0
55667.0,STARLINK-5456,PAYLOAD,2023-11-20 16:46:46,14.98639867,0.0003012,69.9989,122.3098,272.6289,87.4525,-0.0042879,-0.00051293,0.0,0 STARLINK-5456,1 55667U 23021AR  23324.69914933 -.00051293  00000-0 -42879-2 0  9999,2 55667  69.9989 122.3098 0003012 272.6289  87.4525 14.98639867 43164,6949.235,96.087,573.193,569.007,0.0
55667.0,STARLINK-5456,PAYLOAD,2023-11-21 13:36:20,14.98549299,0.0003266,69.999,120.1212,269.1292,90.9493,-0.003438,-0.00041108,0.0,0 STARLINK-5456,1 55667U 23021AR  23325.56690706 -.00041108  00000-0 -34380-2 0  9997,2 55667  69.9990 120.1212 0003266 269.1292  90.9493 14.98549299 43595,6949.515,96.093,573.65,569.11,0.0
55667.0,STARLINK-5456,PAYLOAD,2023-11-21 20:00:51,14.98502182,0.0003659,69.999,119.4477,274.2108,85.8633,-0.0026983,-0.00032286,0.0,0 STARLINK-5456,1 55667U 23021AR  23325.83392742 -.00032286  00000-0 -26983-2 0  9993,2 55667  69.9990 119.4477 0003659 274.2108  85.8633 14.98502182 43632,6949.66,96.096,574.068,568.983,0.0
55667.0,STARLINK-5456,PAYLOAD,2023-11-22 12:02:13,14.98333032,0.0003208,70.0002,117.7646,267.0352,93.044,0.00012289,1.374e-05,0.0,0 STARLINK-5456,1 55667U 23021AR  23326.50154076  .00001374  00000-0  12289-3 0  9991,2 55667  70.0002 117.7646 0003208 267.0352  93.0440 14.98333032 43430,6950.184,96.107,574.278,569.819,0.0
55667.0,STARLINK-5456,PAYLOAD,2023-11-22 13:38:21,14.98331831,0.0003101,69.9998,117.5958,268.3828,91.6976,-3.3233e-05,-4.9e-06,0.0,0 STARLINK-5456,1 55667U 23021AR  23326.56830600 -.00000490  00000-0 -33233-4 0  9994,2 55667  69.9998 117.5958 0003101 268.3828  91.6976 14.98331831 43746,6950.187,96.107,574.207,569.897,0.0
55667.0,STARLINK-5456,PAYLOAD,2023-11-23 00:00:00,14.98332653,0.0003348,70.0,116.507,272.3413,255.7,-0.0024881,-0.00029658,0.0,0 STARLINK-5456,1 55667U 23021AR  23327.00001157 -.00029658  00000-0 -24881-2 0  9995,2 55667  70.0000 116.5070 0003348 272.3413 255.7000 14.98332653  5758,6950.185,96.107,574.377,569.723,0.0
55667.0,STARLINK-5456,PAYLOAD,2023-11-23 13:40:23,14.98322306,0.0002669,70.0006,115.0729,257.7799,102.3062,-6.5963e-05,-8.8e-06,0.0,0 STARLINK-5456,1 55667U 23021AR  23327.56971337 -.00000880  00000-0 -65963-4 0  9996,2 55667  70.0006 115.0729 0002669 257.7799 102.3062 14.98322306 43894,6950.217,96.107,573.937,570.227,0.0
55667.0,STARLINK-5456,PAYLOAD,2023-11-23 20:04:55,14.98320071,0.0002775,70.0006,114.3996,263.5113,96.573,-4.9248e-05,-6.8e-06,0.0,0 STARLINK-5456,1 55667U 23021AR  23327.83675624 -.00000680  00000-0 -49248-4 0  9992,2 55667  70.0006 114.3996 0002775 263.5113  96.5730 14.98320071 43630,6950.224,96.108,574.017,570.16,0.0
55667.0,STARLINK-5456,PAYLOAD,2023-11-24 12:06:15,14.98331949,0.0003281,69.9996,112.7155,273.1656,86.9128,1.856e-05,1.28e-06,0.0,0 STARLINK-5456,1 55667U 23021AR  23328.50434722  .00000128  00000-0  18560-4 0  9997,2 55667  69.9996 112.7155 0003281 273.1656  86.9128 14.98331949 43737,6950.187,96.107,574.332,569.772,0.0
55667.0,STARLINK-5456,PAYLOAD,2023-11-24 13:42:23,14.98345274,0.0003255,69.9995,112.5471,272.059,88.0197,-0.00018548,-2.306e-05,0.0,0 STARLINK-5456,1 55667U 23021AR  23328.57110465 -.00002306  00000-0 -18548-3 0  9996,2 55667  69.9995 112.5471 0003255 272.0590  88.0197 14.98345274 44041,6950.146,96.106,574.273,569.748,0.0
55667.0,STARLINK-5456,PAYLOAD,2023-11-24 20:06:55,14.98337274,0.0003137,69.9997,111.8738,270.2155,89.8644,7.4109e-05,7.92e-06,0.0,0 STARLINK-5456,1 55667U 23021AR  23328.83814108  .00000792  00000-0  74109-4 0  9991,2 55667  69.9997 111.8738 0003137 270.2155  89.8644 14.98337274 44088,6950.17,96.107,574.216,569.855,0.0
55667.0,STARLINK-5456,PAYLOAD,2023-11-25 13:44:24,14.98327336,0.0002973,70.0003,110.0228,267.7028,92.379,8.5233e-05,9.24e-06,0.0,0 STARLINK-5456,1 55667U 23021AR  23329.57250679  .00000924  00000-0  85233-4 0  9997,2 55667  70.0003 110.0228 0002973 267.7028  92.3790 14.98327336 44192,6950.201,96.107,574.132,570.0,0.0
55667.0,STARLINK-5456,PAYLOAD,2023-11-25 18:32:48,14.98329858,0.0002807,70.0002,109.517,261.5955,98.4885,0.00011055,1.226e-05,0.0,0 STARLINK-5456,1 55667U 23021AR  23329.77278406  .00001226  00000-0  11055-3 0  9993,2 55667  70.0002 109.5170 0002807 261.5955  98.4885 14.98329858 44224,6950.193,96.107,574.009,570.107,0.0
55667.0,STARLINK-5456,PAYLOAD,2023-11-26 12:10:16,14.98338352,0.000284,69.9997,107.6652,261.1664,98.9173,2.1889e-05,1.68e-06,0.0,0 STARLINK-5456,1 55667U 23021AR  23330.50713807  .00000168  00000-0  21889-4 0  9996,2 55667  69.9997 107.6652 0002840 261.1664  98.9173 14.98338352 44031,6950.167,96.106,574.006,570.058,0.0
55667.0,STARLINK-5456,PAYLOAD,2023-11-26 13:46:24,14.98337966,0.0002746,70.0006,107.4981,260.4397,99.6451,1.963e-05,1.41e-06,0.0,0 STARLINK-5456,1 55667U 23021AR  23330.57389804  .00000141  00000-0  19630-4 0  9991,2 55667  70.0006 107.4981 0002746 260.4397  99.6451 14.98337966 44349,6950.168,96.106,573.942,570.125,0.0
55667.0,STARLINK-5456,PAYLOAD,2023-11-26 18:34:51,14.98309666,0.0002236,70.0004,106.992,275.7603,84.3301,-0.00030062,-3.676e-05,0.0,0 STARLINK-5456,1 55667U 23021AR  23330.77420577 -.00003676  00000-0 -30062-3 0  9995,2 55667  70.0004 106.9920 0002236 275.7603  84.3301 14.98309666 44078,6950.256,96.108,573.675,570.567,0.0
55667.0,STARLINK-5456,PAYLOAD,2023-11-27 12:12:19,14.98326703,0.0002477,70.0012,105.1421,246.0488,114.0412,1.4569e-05,8.1e-07,0.0,0 STARLINK-5456,1 55667U 23021AR  23331.50855774  .00000081  00000-0  14569-4 0  9998,2 55667  70.0012 105.1421 0002477 246.0488 114.0412 14.98326703 44180,6950.203,96.107,573.79,570.347,0.0
55667.0,STARLINK-5456,PAYLOAD,2023-11-27 13:48:27,14.98331553,0.000241,70.0008,104.9727,229.6598,130.4351,2.1449e-05,1.63e-06,0.0,0 STARLINK-5456,1 55667U 23021AR  23331.57531408  .00000163  00000-0  21449-4 0  9996,2 55667  70.0008 104.9727 0002410 229.6598 130.4351 14.98331553 44494,6950.188,96.107,573.728,570.378,0.0
55667.0,STARLINK-5456,PAYLOAD,2023-11-27 18:36:51,14.9833026,0.0002586,70.0009,104.4686,255.1969,104.8904,3.693e-05,3.48e-06,0.0,0 STARLINK-5456,1 55667U 23021AR  23331.77559592  .00000348  00000-0  36930-4 0  9998,2 55667  70.0009 104.4686 0002586 255.1969 104.8904 14.98330260 44521,6950.192,96.107,573.854,570.26,0.0
55667.0,STARLINK-5456,PAYLOAD,2023-11-28 12:14:18,14.98340345,0.0002487,70.002,102.6179,258.1089,101.9791,0.00022717,2.619e-05,0.0,0 STARLINK-5456,1 55667U 23021AR  23332.50993999  .00002619  00000-0  22717-3 0  9993,2 55667  70.0020 102.6179 0002487 258.1089 101.9791 14.98340345 44333,6950.161,96.106,573.754,570.297,0.0
55667.0,STARLINK-5456,PAYLOAD,2023-11-28 13:50:26,14.9834284,0.0002676,70.0008,102.4477,264.6135,95.4718,0.00021773,2.507e-05,0.0,0 STARLINK-5456,1 55667U 23021AR  23332.57669769  .00002507  00000-0  21773-3 0  9992,2 55667  70.0008 102.4477 0002676 264.6135  95.4718 14.98342840 44644,6950.153,96.106,573.878,570.158,0.0
